[{"OBJECT_NAME":"STARLINK-5884","OBJECT_ID":"2023-037AV","EPOCH":"2026-03-09T21:40:59.689632","MEAN_MOTION":14.98332178,"ECCENTRICITY":0.00026805,"INCLINATION":69.9978,"RA_OF_ASC_NODE":263.9786,"ARG_OF_PERICENTER":272.5548,"MEAN_ANOMALY":87.5304,"EPHEMERIS_TYPE":0,"CLASSIFICATION_TYPE":"U","NORAD_CAT_ID":55957,"ELEMENT_SET_NO":999,"REV_AT_EPOCH":16450,"BSTAR":0.00011589362,"MEAN_MOTION_DOT":1.29e-5,"MEAN_MOTION_DDOT":0},{"OBJECT_NAME":"SL-16 DEB","OBJECT_ID":"1992-093JY","EPOCH":"2026-03-07T13:13:58.279008","MEAN_MOTION":15.07529046,"ECCENTRICITY":0.0041412,"INCLINATION":71.2754,"RA_OF_ASC_NODE":129.6393,"ARG_OF_PERICENTER":153.6297,"MEAN_ANOMALY":274.6618,"EPHEMERIS_TYPE":0,"CLASSIFICATION_TYPE":"U","NORAD_CAT_ID":39708,"ELEMENT_SET_NO":999,"REV_AT_EPOCH":64104,"BSTAR":0.0012088,"MEAN_MOTION_DOT":0.00018716,"MEAN_MOTION_DDOT":0}]
